{
  "type": "FeatureCollection",
  "features": [
    {
      "type": "Feature",
      "properties": {
        "norad_id": 67124,
        "name": "STARLINK-36195",
        "group": "last-30-days",
        "lat": -2.083104201319422,
        "lon": 59.895219542672706,
        "alt_km": 323.1664240802038,
        "timestamp": "2025-12-25T14:48:23.573271+00:00",
        "meta_object_name": "STARLINK-36195",
        "meta_object_id": "2025-299Y",
        "meta_epoch": "2025-12-25T06:00:04.000320",
        "meta_mean_motion": 15.83993994,
        "meta_eccentricity": 0.00015879,
        "meta_inclination": 42.9976,
        "meta_ra_of_asc_node": 239.9117,
        "meta_arg_of_pericenter": 261.6453,
        "meta_mean_anomaly": 347.5665,
        "meta_ephemeris_type": 0,
        "meta_classification_type": "U",
        "meta_norad_cat_id": 67124,
        "meta_element_set_no": 999,
        "meta_rev_at_epoch": 282,
        "meta_bstar": -0.0088014136,
        "meta_mean_motion_dot": -0.01755893,
        "meta_mean_motion_ddot": 0,
        "tle_line1": "1 67124U 25299Y   25359.25004630 -.01755893  00000+0 -88014-2 0  9993",
        "tle_line2": "2 67124  42.9976 239.9117 0001587 261.6453 347.5665 15.83993994  2827"
      },
      "geometry": {
        "type": "Point",
        "coordinates": [
          59.895219542672706,
          -2.083104201319422
        ]
      }
    },
    {
      "type": "Feature",
      "properties": {
        "norad_id": 67125,
        "name": "STARLINK-36219",
        "group": "last-30-days",
        "lat": -3.161303743144244,
        "lon": 61.05187993276798,
        "alt_km": 323.4157889993021,
        "timestamp": "2025-12-25T14:48:23.573282+00:00",
        "meta_object_name": "STARLINK-36219",
        "meta_object_id": "2025-299Z",
        "meta_epoch": "2025-12-25T06:00:04.000320",
        "meta_mean_motion": 15.840075,
        "meta_eccentricity": 0.00016737,
        "meta_inclination": 42.9971,
        "meta_ra_of_asc_node": 239.9073,
        "meta_arg_of_pericenter": 268.856,
        "meta_mean_anomaly": 341.9241,
        "meta_ephemeris_type": 0,
        "meta_classification_type": "U",
        "meta_norad_cat_id": 67125,
        "meta_element_set_no": 999,
        "meta_rev_at_epoch": 282,
        "meta_bstar": -0.00880849,
        "meta_mean_motion_dot": -0.01758175,
        "meta_mean_motion_ddot": 0,
        "tle_line1": "1 67125U 25299Z   25359.25004630 -.01758175  00000+0 -88085-2 0  9998",
        "tle_line2": "2 67125  42.9971 239.9073 0001673 268.8560 341.9241 15.84007500  2826"
      },
      "geometry": {
        "type": "Point",
        "coordinates": [
          61.05187993276798,
          -3.161303743144244
        ]
      }
    },
    {
      "type": "Feature",
      "properties": {
        "norad_id": 67126,
        "name": "STARLINK-36223",
        "group": "last-30-days",
        "lat": -4.425937560168344,
        "lon": 62.41408155225283,
        "alt_km": 323.34831441577717,
        "timestamp": "2025-12-25T14:48:23.573292+00:00",
        "meta_object_name": "STARLINK-36223",
        "meta_object_id": "2025-299AA",
        "meta_epoch": "2025-12-25T06:00:04.000320",
        "meta_mean_motion": 15.84004284,
        "meta_eccentricity": 0.00016594,
        "meta_inclination": 42.9972,
        "meta_ra_of_asc_node": 239.9027,
        "meta_arg_of_pericenter": 262.267,
        "meta_mean_anomaly": 350.3735,
        "meta_ephemeris_type": 0,
        "meta_classification_type": "U",
        "meta_norad_cat_id": 67126,
        "meta_element_set_no": 999,
        "meta_rev_at_epoch": 282,
        "meta_bstar": -0.0087803229,
        "meta_mean_motion_dot": -0.01753113,
        "meta_mean_motion_ddot": 0,
        "tle_line1": "1 67126U 25299AA  25359.25004630 -.01753113  00000+0 -87803-2 0  9993",
        "tle_line2": "2 67126  42.9972 239.9027 0001659 262.2670 350.3735 15.84004284  2829"
      },
      "geometry": {
        "type": "Point",
        "coordinates": [
          62.41408155225283,
          -4.425937560168344
        ]
      }
    },
    {
      "type": "Feature",
      "properties": {
        "norad_id": 67127,
        "name": "STARLINK-36164",
        "group": "last-30-days",
        "lat": -5.583952309439841,
        "lon": 63.66788904555105,
        "alt_km": 323.3991563035497,
        "timestamp": "2025-12-25T14:48:23.573301+00:00",
        "meta_object_name": "STARLINK-36164",
        "meta_object_id": "2025-299AB",
        "meta_epoch": "2025-12-25T06:00:04.000320",
        "meta_mean_motion": 15.84018894,
        "meta_eccentricity": 0.00015658,
        "meta_inclination": 42.9971,
        "meta_ra_of_asc_node": 239.8985,
        "meta_arg_of_pericenter": 260.5461,
        "meta_mean_anomaly": 353.7848,
        "meta_ephemeris_type": 0,
        "meta_classification_type": "U",
        "meta_norad_cat_id": 67127,
        "meta_element_set_no": 999,
        "meta_rev_at_epoch": 282,
        "meta_bstar": -0.008818091,
        "meta_mean_motion_dot": -0.01798684,
        "meta_mean_motion_ddot": 0,
        "tle_line1": "1 67127U 25299AB  25359.25004630 -.01798684  00000+0 -88181-2 0  9996",
        "tle_line2": "2 67127  42.9971 239.8985 0001565 260.5461 353.7848 15.84018894  2820"
      },
      "geometry": {
        "type": "Point",
        "coordinates": [
          63.66788904555105,
          -5.583952309439841
        ]
      }
    },
    {
      "type": "Feature",
      "properties": {
        "norad_id": 67128,
        "name": "STARLINK-35685",
        "group": "last-30-days",
        "lat": -8.723476848175288,
        "lon": 67.1115199673967,
        "alt_km": 323.76688805061985,
        "timestamp": "2025-12-25T14:48:23.573310+00:00",
        "meta_object_name": "STARLINK-35685",
        "meta_object_id": "2025-299AC",
        "meta_epoch": "2025-12-25T06:00:04.000320",
        "meta_mean_motion": 15.83992569,
        "meta_eccentricity": 0.00016517,
        "meta_inclination": 42.997,
        "meta_ra_of_asc_node": 239.8864,
        "meta_arg_of_pericenter": 262.5431,
        "meta_mean_anomaly": 356.4729,
        "meta_ephemeris_type": 0,
        "meta_classification_type": "U",
        "meta_norad_cat_id": 67128,
        "meta_element_set_no": 999,
        "meta_rev_at_epoch": 282,
        "meta_bstar": -0.0088302185,
        "meta_mean_motion_dot": -0.01798925,
        "meta_mean_motion_ddot": 0,
        "tle_line1": "1 67128U 25299AC  25359.25004630 -.01798925  00000+0 -88302-2 0  9990",
        "tle_line2": "2 67128  42.9970 239.8864 0001651 262.5431 356.4729 15.83992569  2828"
      },
      "geometry": {
        "type": "Point",
        "coordinates": [
          67.1115199673967,
          -8.723476848175288
        ]
      }
    },
    {
      "type": "Feature",
      "properties": {
        "norad_id": 67129,
        "name": "STARLINK-36214",
        "group": "last-30-days",
        "lat": -6.90678709945157,
        "lon": 65.1094515082089,
        "alt_km": 323.62815154668715,
        "timestamp": "2025-12-25T14:48:23.573318+00:00",
        "meta_object_name": "STARLINK-36214",
        "meta_object_id": "2025-299AD",
        "meta_epoch": "2025-12-25T06:00:04.000320",
        "meta_mean_motion": 15.8401874,
        "meta_eccentricity": 0.00015711,
        "meta_inclination": 42.9972,
        "meta_ra_of_asc_node": 239.8932,
        "meta_arg_of_pericenter": 265.0131,
        "meta_mean_anomaly": 351.274,
        "meta_ephemeris_type": 0,
        "meta_classification_type": "U",
        "meta_norad_cat_id": 67129,
        "meta_element_set_no": 999,
        "meta_rev_at_epoch": 282,
        "meta_bstar": -0.0088302062,
        "meta_mean_motion_dot": -0.0180085,
        "meta_mean_motion_ddot": 0,
        "tle_line1": "1 67129U 25299AD  25359.25004630 -.01800850  00000+0 -88302-2 0  9992",
        "tle_line2": "2 67129  42.9972 239.8932 0001571 265.0131 351.2740 15.84018740  2820"
      },
      "geometry": {
        "type": "Point",
        "coordinates": [
          65.1094515082089,
          -6.90678709945157
        ]
      }
    },
    {
      "type": "Feature",
      "properties": {
        "norad_id": 67130,
        "name": "STARLINK-36194",
        "group": "last-30-days",
        "lat": -11.809829950088353,
        "lon": 70.5909712193356,
        "alt_km": 324.5051154461662,
        "timestamp": "2025-12-25T14:48:23.573327+00:00",
        "meta_object_name": "STARLINK-36194",
        "meta_object_id": "2025-299AE",
        "meta_epoch": "2025-12-25T06:00:04.000320",
        "meta_mean_motion": 15.83897381,
        "meta_eccentricity": 0.00016813,
        "meta_inclination": 42.997,
        "meta_ra_of_asc_node": 239.8762,
        "meta_arg_of_pericenter": 272.0997,
        "meta_mean_anomaly": 351.6606,
        "meta_ephemeris_type": 0,
        "meta_classification_type": "U",
        "meta_norad_cat_id": 67130,
        "meta_element_set_no": 999,
        "meta_rev_at_epoch": 282,
        "meta_bstar": -0.0088653941,
        "meta_mean_motion_dot": -0.01797967,
        "meta_mean_motion_ddot": 0,
        "tle_line1": "1 67130U 25299AE  25359.25004630 -.01797967  00000+0 -88654-2 0  9998",
        "tle_line2": "2 67130  42.9970 239.8762 0001681 272.0997 351.6606 15.83897381  2821"
      },
      "geometry": {
        "type": "Point",
        "coordinates": [
          70.5909712193356,
          -11.809829950088353
        ]
      }
    }
  ]
}